$$SOE
2460728.500000000, A.D. 2025-Feb-22 00:00:00.0000, 8.451038700108227E+07, -4.136525032600656E+08, 6.456263309672317E+07,
2460735.500000000, A.D. 2025-Mar-01 00:00:00.0000, 9.452950552395430E+07, -4.124803878845274E+08, 6.291034043685386E+07,
2460742.500000000, A.D. 2025-Mar-08 00:00:00.0000, 1.044900340017459E+08, -4.110526274058703E+08, 6.121904604428367E+07,
2460749.500000000, A.D. 2025-Mar-15 00:00:00.0000, 1.143861169786311E+08, -4.093713454500442E+08, 5.948998288367487E+07,
2460756.500000000, A.D. 2025-Mar-22 00:00:00.0000, 1.242119840587631E+08, -4.074387623516505E+08, 5.772439014470191E+07,
2460763.500000000, A.D. 2025-Mar-29 00:00:00.0000, 1.339619486024291E+08, -4.052571942924519E+08, 5.592351274058080E+07,
2460770.500000000, A.D. 2025-Apr-05 00:00:00.0000, 1.436304080753639E+08, -4.028290516917430E+08, 5.408860075526379E+07,
2460777.500000000, A.D. 2025-Apr-12 00:00:00.0000, 1.532118441324822E+08, -4.001568367425857E+08, 5.222090902298285E+07,
2460784.500000000, A.D. 2025-Apr-19 00:00:00.0000, 1.627008222554547E+08, -3.972431409725127E+08, 5.032169678366652E+07,
2460791.500000000, A.D. 2025-Apr-26 00:00:00.0000, 1.720919912221369E+08, -3.940906430287120E+08, 4.839222737110104E+07,
2460798.500000000, A.D. 2025-May-03 00:00:00.0000, 1.813800825274888E+08, -3.907021066654235E+08, 4.643376792339669E+07,
2460805.500000000, A.D. 2025-May-10 00:00:00.0000, 1.905599097901131E+08, -3.870803789215834E+08, 4.444758911224504E+07,
2460812.500000000, A.D. 2025-May-17 00:00:00.0000, 1.996263681865230E+08, -3.832283885262628E+08, 4.243496488266362E+07,
2460819.500000000, A.D. 2025-May-24 00:00:00.0000, 2.085744340924035E+08, -3.791491445831816E+08, 4.039717218145458E+07,
2460826.500000000, A.D. 2025-May-31 00:00:00.0000, 2.173991653533663E+08, -3.748457352208284E+08, 3.833549066033685E+07,
2460833.500000000, A.D. 2025-Jun-07 00:00:00.0000, 2.260957017875996E+08, -3.703213250007402E+08, 3.625120248772164E+07,
2460840.500000000, A.D. 2025-Jun-14 00:00:00.0000, 2.346592635580698E+08, -3.655791517461651E+08, 3.414559242971936E+07,
2460847.500000000, A.D. 2025-Jun-21 00:00:00.0000, 2.430851486342054E+08, -3.606225260554091E+08, 3.201994781934693E+07,
2460854.500000000, A.D. 2025-Jun-28 00:00:00.0000, 2.513687324772994E+08, -3.554548317292885E+08, 2.987555826985916E+07,
2460861.500000000, A.D. 2025-Jul-05 00:00:00.0000, 2.595054684400157E+08, -3.500795249539880E+08, 2.771371544709589E+07,
2460868.500000000, A.D. 2025-Jul-12 00:00:00.0000, 2.674908876945827E+08, -3.445001330442506E+08, 2.553571294397348E+07,
2460875.500000000, A.D. 2025-Jul-19 00:00:00.0000, 2.753205988828999E+08, -3.387202533213736E+08, 2.334284619213159E+07,
2460882.500000000, A.D. 2025-Jul-26 00:00:00.0000, 2.829902877007722E+08, -3.327435521809170E+08, 2.113641238590474E+07,
2460889.500000000, A.D. 2025-Aug-02 00:00:00.0000, 2.904957164832216E+08, -3.265737643255123E+08, 1.891771041321188E+07,
2460896.500000000, A.D. 2025-Aug-09 00:00:00.0000, 2.978327238156204E+08, -3.202146921731478E+08, 1.668804078875600E+07,
2460903.500000000, A.D. 2025-Aug-16 00:00:00.0000, 3.049972242493004E+08, -3.136702054987423E+08, 1.444870557610011E+07,
2460910.500000000, A.D. 2025-Aug-23 00:00:00.0000, 3.119852084173915E+08, -3.069442412867911E+08, 1.220100827221286E+07,
2460917.500000000, A.D. 2025-Aug-30 00:00:00.0000, 3.187927438847218E+08, -3.000408030768696E+08, 9.946253682223395E+06,
2460924.500000000, A.D. 2025-Sep-06 00:00:00.0000, 3.254159753186302E+08, -2.929639587999475E+08, 7.685747995945975E+06,
2460931.500000000, A.D. 2025-Sep-13 00:00:00.0000, 3.318511223128229E+08, -2.857178395867059E+08, 5.420799015888900E+06,
2460938.500000000, A.D. 2025-Sep-20 00:00:00.0000, 3.380944781392924E+08, -2.783066411885923E+08, 3.152716101199448E+06,
2460945.500000000, A.D. 2025-Sep-27 00:00:00.0000, 3.441424104898710E+08, -2.707346248963939E+08, 8.828099839410931E+05,
2460952.500000000, A.D. 2025-Oct-04 00:00:00.0000, 3.499913621941210E+08, -2.630061174146032E+08, -1.387607313976079E+06,
2460959.500000000, A.D. 2025-Oct-11 00:00:00.0000, 3.556378515426366E+08, -2.551255106319684E+08, -3.657222506859154E+06,
2460966.500000000, A.D. 2025-Oct-18 00:00:00.0000, 3.610784725018402E+08, -2.470972615594671E+08, -5.924721063706413E+06,
2460973.500000000, A.D. 2025-Oct-25 00:00:00.0000, 3.663098949622737E+08, -2.389258924212112E+08, -8.188787232034937E+06,
2460980.500000000, A.D. 2025-Nov-01 00:00:00.0000, 3.713288650622957E+08, -2.306159908792490E+08, -1.044810407052219E+07,
2460987.500000000, A.D. 2025-Nov-08 00:00:00.0000, 3.761322056238919E+08, -2.221722104200738E+08, -1.270135349739313E+07,
2460994.500000000, A.D. 2025-Nov-15 00:00:00.0000, 3.807168168499937E+08, -2.135992709572148E+08, -1.494721637417001E+07,
2461001.500000000, A.D. 2025-Nov-22 00:00:00.0000, 3.850796776878350E+08, -2.049019594245976E+08, -1.718437264495356E+07,
2461008.500000000, A.D. 2025-Nov-29 00:00:00.0000, 3.892178477090119E+08, -1.960851292208581E+08, -1.941150142551257E+07,
2461015.500000000, A.D. 2025-Dec-06 00:00:00.0000, 3.931284672334539E+08, -1.871536986380445E+08, -2.162728084556706E+07,
2461022.500000000, A.D. 2025-Dec-13 00:00:00.0000, 3.968087561328509E+08, -1.781126516423634E+08, -2.383038796082390E+07,
2461029.500000000, A.D. 2025-Dec-20 00:00:00.0000, 4.002560148073805E+08, -1.689670399785605E+08, -2.601949897280989E+07,
2461036.500000000, A.D. 2025-Dec-27 00:00:00.0000, 4.034676262646092E+08, -1.597219840010724E+08, -2.819328944736054E+07,
2461043.500000000, A.D. 2026-Jan-03 00:00:00.0000, 4.064410578449275E+08, -1.503826728427508E+08, -3.035043444935744E+07,
2461050.500000000, A.D. 2026-Jan-10 00:00:00.0000, 4.091738627066051E+08, -1.409543645952469E+08, -3.248960866043109E+07,
2461057.500000000, A.D. 2026-Jan-17 00:00:00.0000, 4.116636813062746E+08, -1.314423865874687E+08, -3.460948650965924E+07,
2461064.500000000, A.D. 2026-Jan-24 00:00:00.0000, 4.139082429561470E+08, -1.218521357342194E+08, -3.670874232383327E+07,
2461071.500000000, A.D. 2026-Jan-31 00:00:00.0000, 4.159053674846694E+08, -1.121890789574560E+08, -3.878605050141665E+07,
2461078.500000000, A.D. 2026-Feb-07 00:00:00.0000, 4.176529670644693E+08, -1.024587537329865E+08, -4.084008572191496E+07,
2461085.500000000, A.D. 2026-Feb-14 00:00:00.0000, 4.191490484607171E+08, -9.266676877305597E+07, -4.286952321633586E+07,
2461092.500000000, A.D. 2026-Feb-21 00:00:00.0000, 4.203917160857692E+08, -8.281880426064506E+07, -4.487303908791704E+07,
2461099.500000000, A.D. 2026-Feb-28 00:00:00.0000, 4.213791747760109E+08, -7.292061047269128E+07, -4.684931049004649E+07,
2461106.500000000, A.D. 2026-Mar-07 00:00:00.0000, 4.221097302366377E+08, -6.297800673439709E+07, -4.879701563316549E+07,
2461113.500000000, A.D. 2026-Mar-14 00:00:00.0000, 4.225817899330919E+08, -5.299688303059610E+07, -5.071483406737352E+07,
2461120.500000000, A.D. 2026-Mar-21 00:00:00.0000, 4.227938662146194E+08, -4.298320136834855E+07, -5.260144716891753E+07,
2461127.500000000, A.D. 2026-Mar-28 00:00:00.0000, 4.227445796648079E+08, -3.294299585506770E+07, -5.445553856397424E+07,
2461134.500000000, A.D. 2026-Apr-04 00:00:00.0000, 4.224326620789837E+08, -2.288237245183416E+07, -5.627579451512857E+07,
2461141.500000000, A.D. 2026-Apr-11 00:00:00.0000, 4.218569593442729E+08, -1.280750875544458E+07, -5.806090432677232E+07,
2461148.500000000, A.D. 2026-Apr-18 00:00:00.0000, 4.210164343825558E+08, -2.724653808439337E+06, -5.980956078610715E+07,
2461155.500000000, A.D. 2026-Apr-25 00:00:00.0000, 4.199101702029037E+08, 7.359872086001355E+06, -6.152046064423731E+07,
2461162.500000000, A.D. 2026-May-02 00:00:00.0000, 4.185373730951442E+08, 1.743967752369919E+07, -6.319230514415141E+07,
2461169.500000000, A.D. 2026-May-09 00:00:00.0000, 4.168973760901170E+08, 2.750830007655856E+07, -6.482380061412968E+07,
2461176.500000000, A.D. 2026-May-16 00:00:00.0000, 4.149896430642409E+08, 3.755920643441603E+07, -6.641365915154208E+07,
2461183.500000000, A.D. 2026-May-23 00:00:00.0000, 4.128137735378133E+08, 4.758579364459223E+07, -6.796059931940728E+07,
2461190.500000000, A.D. 2026-May-30 00:00:00.0000, 4.103695060884347E+08, 5.758139178185470E+07, -6.946334664057808E+07,
2461197.500000000, A.D. 2026-Jun-06 00:00:00.0000, 4.076567200652176E+08, 6.753926478642966E+07, -7.092063413077968E+07,
2461204.500000000, A.D. 2026-Jun-13 00:00:00.0000, 4.046754392681832E+08, 7.745260967837714E+07, -7.233120319273023E+07,
2461211.500000000, A.D. 2026-Jun-20 00:00:00.0000, 4.014258370874732E+08, 8.731455708636901E+07, -7.369380458785251E+07,
2461218.500000000, A.D. 2026-Jun-27 00:00:00.0000, 3.979082414010605E+08, 9.711817276422665E+07, -7.500719935957891E+07,
2461225.500000000, A.D. 2026-Jul-04 00:00:00.0000, 3.941231392280251E+08, 1.068564593334722E+08, -7.627015977382460E+07,
2461232.500000000, A.D. 2026-Jul-11 00:00:00.0000, 3.900711813875586E+08, 1.165223581333176E+08, -7.748147031291640E+07,
2461239.500000000, A.D. 2026-Jul-18 00:00:00.0000, 3.857531872516691E+08, 1.261087512176034E+08, -7.863992873151103E+07,
2461246.500000000, A.D. 2026-Jul-25 00:00:00.0000, 3.811701496104176E+08, 1.356084635157134E+08, -7.974434717857343E+07,
2461253.500000000, A.D. 2026-Aug-01 00:00:00.0000, 3.763232396914827E+08, 1.450142651241848E+08, -8.079355339580299E+07,
2461260.500000000, A.D. 2026-Aug-08 00:00:00.0000, 3.712138125420703E+08, 1.543188737080830E+08, -8.178639201724814E+07,
2461267.500000000, A.D. 2026-Aug-15 00:00:00.0000, 3.658434131795412E+08, 1.635149574765485E+08, -8.272172597310825E+07,
2461274.500000000, A.D. 2026-Aug-22 00:00:00.0000, 3.602137827369322E+08, 1.725951399683110E+08, -8.359843782862003E+07,
2461281.500000000, A.D. 2026-Aug-29 00:00:00.0000, 3.543268623020455E+08, 1.815520052932681E+08, -8.441543096122737E+07,
2461288.500000000, A.D. 2026-Sep-05 00:00:00.0000, 3.481847965755385E+08, 1.903781009798505E+08, -8.517163100887892E+07,
2461295.500000000, A.D. 2026-Sep-12 00:00:00.0000, 3.417899397898403E+08, 1.990659409378258E+08, -8.586598761199263E+07,
$$EOE